[{"OBJECT_NAME":"TOMORROW-R2","OBJECT_ID":"2023-084AG","EPOCH":"2026-03-09T21:19:23.098656","MEAN_MOTION":15.71879583,"ECCENTRICITY":0.00051142,"INCLINATION":97.5895,"RA_OF_ASC_NODE":222.1734,"ARG_OF_PERICENTER":248.1295,"MEAN_ANOMALY":111.9424,"EPHEMERIS_TYPE":0,"CLASSIFICATION_TYPE":"U","NORAD_CAT_ID":56962,"ELEMENT_SET_NO":999,"REV_AT_EPOCH":15332,"BSTAR":0.00081619373,"MEAN_MOTION_DOT":0.00107013,"MEAN_MOTION_DDOT":0},{"OBJECT_NAME":"STARLINK-11224 [DTC]","OBJECT_ID":"2024-133D","EPOCH":"2026-03-09T11:59:47.153184","MEAN_MOTION":15.69702543,"ECCENTRICITY":0.00011739,"INCLINATION":53.1597,"RA_OF_ASC_NODE":147.208,"ARG_OF_PERICENTER":77.3818,"MEAN_ANOMALY":282.7331,"EPHEMERIS_TYPE":0,"CLASSIFICATION_TYPE":"U","NORAD_CAT_ID":60304,"ELEMENT_SET_NO":999,"REV_AT_EPOCH":9378,"BSTAR":7.26842e-6,"MEAN_MOTION_DOT":2.92e-6,"MEAN_MOTION_DDOT":0}]
